[{"OBJECT_NAME":"STARLINK-30245","OBJECT_ID":"2023-119L","EPOCH":"2026-03-09T22:00:01.999584","MEAN_MOTION":15.18036601,"ECCENTRICITY":0.00011821,"INCLINATION":43.0006,"RA_OF_ASC_NODE":79.6426,"ARG_OF_PERICENTER":235.8464,"MEAN_ANOMALY":301.7171,"EPHEMERIS_TYPE":0,"CLASSIFICATION_TYPE":"U","NORAD_CAT_ID":57612,"ELEMENT_SET_NO":999,"REV_AT_EPOCH":562,"BSTAR":0.061700366,"MEAN_MOTION_DOT":0.01394408,"MEAN_MOTION_DDOT":0},{"OBJECT_NAME":"BALKAN-1","OBJECT_ID":"2025-009C","EPOCH":"2026-03-09T22:57:33.536160","MEAN_MOTION":15.23563799,"ECCENTRICITY":0.00059641,"INCLINATION":97.3965,"RA_OF_ASC_NODE":149.5165,"ARG_OF_PERICENTER":335.3558,"MEAN_ANOMALY":24.7393,"EPHEMERIS_TYPE":0,"CLASSIFICATION_TYPE":"U","NORAD_CAT_ID":62611,"ELEMENT_SET_NO":999,"REV_AT_EPOCH":6364,"BSTAR":0.00042017416,"MEAN_MOTION_DOT":9.985e-5,"MEAN_MOTION_DDOT":0}]
